OBJECT_NAME,OBJECT_ID,EPOCH,MEAN_MOTION,ECCENTRICITY,INCLINATION,RA_OF_ASC_NODE,ARG_OF_PERICENTER,MEAN_ANOMALY,EPHEMERIS_TYPE,CLASSIFICATION_TYPE,NORAD_CAT_ID,ELEMENT_SET_NO,REV_AT_EPOCH,BSTAR,MEAN_MOTION_DOT,MEAN_MOTION_DDOT
INTELSAT 902 (IS-902),2001-039A,2026-06-04T04:46:01.422912,1.00271704,.00042697,6.0857,71.9392,358.5031,203.6038,0,U,26900,999,9056,0,-.273E-5,0
INTELSAT 904 (IS-904),2002-007A,2026-06-04T15:07:22.997856,1.00270819,.00072846,6.8885,69.3348,359.0948,20.0024,0,U,27380,999,5164,0,-.215E-5,0
DIRECTV 5 (TEMPO 1),2002-023A,2026-06-04T21:35:20.092704,1.00271850,.00035192,4.8461,75.4624,5.2911,26.3186,0,U,27426,999,8800,0,-.46E-6,0
INTELSAT 905 (IS-905),2002-027A,2026-06-04T14:58:36.014880,1.00272329,.00042377,6.7218,69.9509,11.5199,259.0333,0,U,27438,999,5123,0,.104E-5,0
GALAXY 3C (G-3C),2002-030A,2026-06-04T14:34:22.163808,1.00271868,.00019479,3.6981,78.1438,28.6349,270.0137,0,U,27445,999,4636,0,-.141E-5,0
INTELSAT 906 (IS-906),2002-041A,2026-06-04T19:57:21.473856,1.00270294,.00047057,5.7724,73.0704,355.8727,187.8119,0,U,27513,999,8690,0,.24E-6,0
GALAXY 13 (HORIZONS-1),2003-044A,2026-06-04T15:07:23.994912,1.00271571,.00020629,1.3878,84.0091,342.2108,263.6829,0,U,27954,999,4644,0,.144E-5,0
INTELSAT 10-02,2004-022A,2026-06-04T15:16:05.536416,1.00271631,.00001271,0.0141,341.1636,105.7346,34.2013,0,U,28358,999,8043,0,.1E-7,0
DIRECTV 8,2005-019A,2026-06-04T21:32:57.820416,1.00271383,.00031548,0.0183,321.8863,113.1138,22.5344,0,U,28659,999,7695,0,.13E-6,0
GALAXY 28 (G-28),2005-022A,2026-06-04T21:59:10.307328,1.00269177,.00031883,3.2666,79.0827,0.1133,116.8536,0,U,28702,999,5185,0,-.189E-5,0
GALAXY 16 (G-16),2006-023A,2026-06-04T21:38:49.757856,1.00273797,.00031534,0.0147,274.0856,170.0966,34.8782,0,U,29236,999,7285,0,-.115E-5,0
DIRECTV 9S,2006-043A,2026-06-04T21:38:12.318144,1.00271980,.00051833,2.3887,81.0490,3.6774,31.9817,0,U,29494,999,5126,0,-.102E-5,0
GALAXY 17 (G-17),2007-016B,2026-06-04T21:42:49.375296,1.00273968,.00049211,2.9408,80.0567,12.2949,41.7037,0,U,31307,999,6968,0,-.195E-5,0
INTELSAT 11 (IS-11),2007-044B,2026-06-04T15:03:45.055584,0.99053533,.00016504,3.5325,78.8209,74.4904,146.6760,0,U,32253,999,6832,0,-.139E-5,0
HORIZONS-2,2007-063B,2026-06-04T21:46:04.063872,1.00273609,.00041915,2.5701,80.7756,352.1049,73.2045,0,U,32388,999,6769,0,-.242E-5,0
DIRECTV 11,2008-013A,2026-06-04T21:38:42.269568,1.00270355,.00005747,0.0153,150.9196,236.0221,91.8989,0,U,32729,999,4547,0,-.113E-5,0
GALAXY 18 (G-18),2008-024A,2026-06-04T21:31:50.428416,1.00271734,.00032988,0.0121,37.3016,46.3730,9.6152,0,U,32951,999,4573,0,.37E-6,0
INTELSAT 25 (IS-25),2008-034A,2026-06-04T19:32:13.121664,0.99015302,.00017551,2.6764,80.4561,12.6038,270.1716,0,U,33153,999,6556,0,-.167E-5,0
GALAXY 19 (G-19),2008-045A,2026-06-04T21:39:19.710144,1.00270520,.00034956,0.0161,28.3304,63.7949,29.0501,0,U,33376,999,6478,0,-.127E-5,0
FM-5,2009-034A,2026-06-04T21:42:26.911296,1.00272535,.00004069,0.0114,298.9217,18.7070,175.1655,0,U,35493,999,4652,0,-.188E-5,0
INTELSAT 14 (IS-14),2009-064A,2026-06-04T21:54:10.785312,1.00272954,.00028771,0.0116,312.3230,136.9029,87.6829,0,U,36097,999,6048,0,-.261E-5,0
INTELSAT 15 (IS-15),2009-067A,2026-06-04T19:12:21.632832,1.00272632,.00024691,0.0146,318.0491,117.3360,191.0971,0,U,36106,999,4110,0,-.173E-5,0
DIRECTV 12,2009-075A,2026-06-04T14:38:50.775360,1.00273044,.00004871,0.0403,147.4672,266.6647,315.9192,0,U,36131,999,4642,0,-.92E-6,0
INTELSAT 16 (IS-16),2010-006A,2026-06-04T21:45:19.135008,1.00272002,.0002266,0.0139,27.9727,57.3147,58.2078,0,U,36397,999,5953,0,-.233E-5,0
XM-5,2010-053A,2026-06-04T09:35:36.621024,1.00272037,.00029236,0.0616,274.3576,276.0478,91.1514,0,U,37185,999,5735,0,-.11E-6,0
INTELSAT 17 (IS-17),2010-065B,2026-06-04T19:57:21.473856,1.00271854,.00023952,0.0077,288.4666,149.3712,180.7641,0,U,37238,999,5312,0,.11E-6,0
INTELSAT 28 (IS-28),2011-016A,2026-06-04T21:58:02.913600,1.00270072,.00040535,1.7741,82.7740,351.1240,117.2920,0,U,37392,999,5316,0,-.213E-5,0
INTELSAT 18 (IS-18),2011-056A,2026-06-04T19:14:56.116032,1.00271660,.00022611,0.0121,294.0773,151.6533,276.2486,0,U,37834,999,5368,0,.65E-6,0
INTELSAT 22 (IS-22),2012-011A,2026-06-04T22:27:36.487872,1.00273340,.00016109,0.0107,37.5216,23.3839,241.4562,0,U,38098,999,706,0,-.47E-6,0
INTELSAT 19 (IS-19),2012-030A,2026-06-04T16:44:55.664736,1.00272139,.00032089,0.0185,340.3848,99.8436,230.1515,0,U,38356,999,5032,0,-.44E-6,0
INTELSAT 20 (IS-20),2012-043A,2026-06-04T19:57:21.473856,1.00271341,.0001553,0.0098,81.5762,96.2799,83.2508,0,U,38740,999,5062,0,-.12E-6,0
